ONEWEB-0528             
1 54643U 22166B   23281.48662379  .00000109  00000+0  23313-3 0  9994
2 54643  87.9186  79.6171 0001827  87.0312 273.1031 13.21825183 41728
ONEWEB-0539             
1 54644U 22166C   23281.52447038  .00000042  00000+0  69586-4 0  9992
2 54644  87.9186  79.6096 0002003  97.2950 262.8411 13.21825119 41729
ONEWEB-0540             
1 54645U 22166D   23281.51728345  .00000065  00000+0  12524-3 0  9999
2 54645  87.9189  79.6357 0001954  95.9318 264.2039 13.22282364 41711
ONEWEB-0542             
1 54646U 22166E   23281.53287368  .00000121  00000+0  26034-3 0  9991
2 54646  87.9185  79.6080 0001843 109.1650 250.9684 13.21829716 41721
ONEWEB-0545             
1 54647U 22166F   23281.49923880  .00000140  00000+0  30626-3 0  9996
2 54647  87.9187  79.6547 0002353  99.3673 260.7727 13.21827713 41681
ONEWEB-0580             
1 54648U 22166G   23281.47400098 -.00000161  00000+0 -42154-3 0  9990
2 54648  87.9184  79.6157 0001836 106.5747 253.5588 13.21825977 41724
ONEWEB-0582             
1 54649U 22166H   23281.51395257  .00000093  00000+0  19360-3 0  9991
2 54649  87.9187  79.6460 0002081  92.3335 267.8037 13.21824203 41709
ONEWEB-0583             
1 54650U 22166J   23281.45087796  .00000089  00000+0  18370-3 0  9997
2 54650  87.9186  79.6658 0001703  77.0782 283.0542 13.21824669 41702
